{
    "links": {
        "self": "http://www.neowsapp.com/rest/v1/neo/54053820?api_key=iIulBulltgU6a56xZRHN4H3l9WmuAYTsLGpBGhQ2"
    },
    "id": "54053820",
    "neo_reference_id": "54053820",
    "name": "(2020 RB2)",
    "designation": "2020 RB2",
    "nasa_jpl_url": "http://ssd.jpl.nasa.gov/sbdb.cgi?sstr=54053820",
    "absolute_magnitude_h": 25.908,
    "estimated_diameter": {
        "kilometers": {
            "estimated_diameter_min": 0.0174966529,
            "estimated_diameter_max": 0.0391237053
        },
        "meters": {
            "estimated_diameter_min": 17.4966529108,
            "estimated_diameter_max": 39.1237052873
        },
        "miles": {
            "estimated_diameter_min": 0.0108719127,
            "estimated_diameter_max": 0.0243103359
        },
        "feet": {
            "estimated_diameter_min": 57.4037187359,
            "estimated_diameter_max": 128.3586172548
        }
    },
    "is_potentially_hazardous_asteroid": false,
    "close_approach_data": [
        {
            "close_approach_date": "2020-09-04",
            "close_approach_date_full": "2020-Sep-04 06:21",
            "epoch_date_close_approach": 1599200460000,
            "relative_velocity": {
                "kilometers_per_second": "10.85609332",
                "kilometers_per_hour": "39081.9359521703",
                "miles_per_hour": "24283.9951476138"
            },
            "miss_distance": {
                "astronomical": "0.0275708074",
                "lunar": "10.7250440786",
                "kilometers": "4124534.061220238",
                "miles": "2562866.6239377644"
            },
            "orbiting_body": "Earth"
        },
        {
            "close_approach_date": "2020-11-04",
            "close_approach_date_full": "2020-Nov-04 15:37",
            "epoch_date_close_approach": 1604504220000,
            "relative_velocity": {
                "kilometers_per_second": "12.2175619243",
                "kilometers_per_hour": "43983.2229274339",
                "miles_per_hour": "27329.464268438"
            },
            "miss_distance": {
                "astronomical": "0.0789727059",
                "lunar": "30.7203825951",
                "kilometers": "11814148.590776433",
                "miles": "7340971.5289354554"
            },
            "orbiting_body": "Mars"
        }
    ],
    "orbital_data": {
        "orbit_id": "1",
        "orbit_determination_date": "2020-09-11 10:12:13",
        "first_observation_date": "2020-09-10",
        "last_observation_date": "2020-09-11",
        "data_arc_in_days": 1,
        "observations_used": 15,
        "orbit_uncertainty": "9",
        "minimum_orbit_intersection": ".0104778",
        "jupiter_tisserand_invariant": "3.598",
        "epoch_osculation": "2459102.5",
        "eccentricity": ".537976194347166",
        "semi_major_axis": "2.047326244253342",
        "inclination": "2.090660483887283",
        "ascending_node_longitude": "321.1966499617119",
        "orbital_period": "1069.98824687798",
        "perihelion_distance": ".9459134627828526",
        "perihelion_argument": "341.9020621900696",
        "aphelion_distance": "3.148739025723831",
        "perihelion_time": "2459066.990066336677",
        "mean_anomaly": "11.94739863367312",
        "mean_motion": ".3364522937989373",
        "equinox": "J2000",
        "orbit_class": {
            "orbit_class_type": "APO",
            "orbit_class_description": "Near-Earth asteroid orbits which cross the Earth’s orbit similar to that of 1862 Apollo",
            "orbit_class_range": "a (semi-major axis) > 1.0 AU; q (perihelion) < 1.017 AU"
        }
    },
    "is_sentry_object": false
}